SKYSAT-C4               
1 41771U 16058B   26156.31181551  .00015661  00000+0  29904-3 0  9990
2 41771  96.9178 178.5840 0000971  78.7321 281.4039 15.48200882543636
SKYSAT-C5               
1 41772U 16058C   26156.36519478  .00007470  00000+0  22720-3 0  9997
2 41772  97.0473 197.5342 0002437  14.9757 345.1558 15.34293561541935
SKYSAT-C2               
1 41773U 16058D   26156.05887579  .00011729  00000+0  27886-3 0  9994
2 41773  97.0170 178.6127 0005214  96.1934 263.9908 15.41782818543187
SKYSAT-C3               
1 41774U 16058E   26156.34646874  .00019999  00000+0  33339-3 0  9995
2 41774  96.9013 187.6532 0002078  80.7564 279.3925 15.52014879544273
ALSAT-1B                
1 41785U 16059C   26156.68637736  .00000395  00000+0  70063-4 0  9998
2 41785  97.7751 165.9465 0007734 264.0835  95.9491 14.72266053518881
PATHFINDER 1            
1 41787U 16059E   26156.27370833  .00000641  00000+0  12044-3 0  9995
2 41787  97.8166 156.0878 0027074 243.0101 116.8339 14.67649034517965
SCATSAT 1               
1 41790U 16059H   26156.10736325  .00001194  00000+0  16352-3 0  9993
2 41790  98.1196 219.7487 0053316 287.3684  72.1701 14.79499810 99807
GOKTURK 1A              
1 41875U 16073A   26156.68543196  .00000484  00000+0  10408-3 0  9995
2 41875  98.1262  51.5395 0001462  76.5808 283.5556 14.62766350507141
RESOURCESAT-2A          
1 41877U 16074A   26156.66887868  .00000566  00000+0  27840-3 0  9992
2 41877  98.7525 230.2669 0003290 104.5328 255.6215 14.21614480492664
CARTOSAT-2D             
1 41948U 17008A   26156.63246799 -.00002160  00000+0 -99469-4 0  9999
2 41948  97.4122 216.1531 0003728 285.1069  74.9753 15.19236200515828
SENTINEL-2B             
1 42063U 17013A   26156.66901281  .00000296  00000+0  12941-3 0  9996
2 42063  98.5691 231.6053 0001222  82.6601 277.4720 14.30814470482998
CARTOSAT-2E             
1 42767U 17036C   26156.71590928  .00003482  00000+0  16852-3 0  9995
2 42767  97.4275 216.7066 0003381   6.7521 353.3759 15.19226924496405
FORMOSAT-5              
1 42920U 17049A   26156.67393347  .00000202  00000+0  62094-4 0  9998
2 42920  98.2254 232.2392 0012602 116.1678 244.0815 14.50894483465008
SENTINEL-5P             
1 42969U 17064A   26156.57168345  .00000067  00000+0  53009-4 0  9990
2 42969  98.7922  98.7858 0000994  81.0141 279.1148 14.19516921447917
SKYSAT-C11              
1 42987U 17068A   26156.36484294  .00025292  00000+0  34801-3 0  9990
2 42987  97.4346 304.6876 0001175  87.6426 272.4964 15.57259063481400
SKYSAT-C10              
1 42988U 17068B   26156.62009427  .00009959  00000+0  30097-3 0  9996
2 42988  97.4497 293.3574 0001298  89.5268 270.6123 15.34433007480580
SKYSAT-C9               
1 42989U 17068C   26156.35903169  .00012142  00000+0  29359-3 0  9990
2 42989  97.4417 293.9165 0008790 171.3348 188.8052 15.41256736480938
SKYSAT-C8               
1 42990U 17068D   26156.34845036  .00009599  00000+0  26974-3 0  9991
2 42990  97.4515 292.8380 0001594  99.3532 260.7892 15.36733367480492
SKYSAT-C7               
1 42991U 17068E   26156.34166741  .00010245  00000+0  28803-3 0  9994
2 42991  97.4525 293.8200 0006888 141.3756 218.7982 15.36679572480550
SKYSAT-C6               
1 42992U 17068F   26156.60167525  .00010101  00000+0  30932-3 0  9992
2 42992  97.4559 294.0953 0003719 168.9448 191.1877 15.34006093480545
CARTOSAT-2F             
1 43111U 18004A   26156.68196231  .00003982  00000+0  19199-3 0  9992
2 43111  97.4790 216.4278 0000288  12.6876 347.4365 15.19283138465587
GAOFEN-1 02             
1 43259U 18031A   26156.70973898  .00000729  00000+0  11210-3 0  9992
2 43259  98.0527 219.2680 0004474  58.7394 301.4253 14.76465032441004
GAOFEN-1 03             
1 43260U 18031B   26156.75566118  .00000844  00000+0  12869-3 0  9991
2 43260  98.0526 219.1737 0003809 101.9992 258.1645 14.76452599441000
GAOFEN-1 04             
1 43262U 18031D   26156.73140469  .00000882  00000+0  13423-3 0  9997
2 43262  98.0528 219.3387 0002200  92.5884 267.5577 14.76462488440999
SENTINEL-3B             
1 43437U 18039A   26156.47801779  .00000122  00000+0  68428-4 0  9991
2 43437  98.6250 224.1778 0000937  75.1452 284.9833 14.26738325422452
GAOFEN-5 01             
1 43461U 18043A   26156.48432956  .00000393  00000+0  90938-4 0  9992
2 43461  98.4564 127.8254 0002963 104.8796 255.2731 14.60597098429986
GAOFEN-6                
1 43484U 18048A   26156.75452348  .00001184  00000+0  17632-3 0  9997
2 43484  97.7759 219.8576 0011146 206.1912 153.8736 14.76621081431705
GAOFEN-11 01            
1 43585U 18063A   26156.71973698  .00014006  00000+0  21064-3 0  9999
2 43585  97.1292 223.6335 0004460  36.5625 323.5934 15.54944849438560
ICESAT-2                
1 43613U 18070A   26156.69606708  .00010898  00000+0  39515-3 0  9996
2 43613  92.0072 287.8759 0004809 119.5265 240.6465 15.28311518430701
HYSIS                   
1 43719U 18096A   26156.70771258  .00001560  00000+0  21984-3 0  9993
2 43719  97.9840 223.5451 0001582 112.9954 247.1424 14.78673178405726
KAZSTSAT                
1 43783U 18099AB  26156.35562455  .00001313  00000+0  11049-3 0  9992
2 43783  97.4265 188.8226 0007549 100.5317 259.6758 14.99833502409534
