OBJECT_NAME,OBJECT_ID,EPOCH,MEAN_MOTION,ECCENTRICITY,INCLINATION,RA_OF_ASC_NODE,ARG_OF_PERICENTER,MEAN_ANOMALY,EPHEMERIS_TYPE,CLASSIFICATION_TYPE,NORAD_CAT_ID,ELEMENT_SET_NO,REV_AT_EPOCH,BSTAR,MEAN_MOTION_DOT,MEAN_MOTION_DDOT
SKYSAT-C4,2016-058B,2026-06-05T07:29:00.860064,15.48200882,.0000971,96.9178,178.5840,78.7321,281.4039,0,U,41771,999,54363,.29904E-3,.15661E-3,0
SKYSAT-C5,2016-058C,2026-06-05T08:45:52.828992,15.34293561,.0002437,97.0473,197.5342,14.9757,345.1558,0,U,41772,999,54193,.2272E-3,.747E-4,0
SKYSAT-C2,2016-058D,2026-06-05T01:24:46.868256,15.41782818,.0005214,97.0170,178.6127,96.1934,263.9908,0,U,41773,999,54318,.27886E-3,.11729E-3,0
SKYSAT-C3,2016-058E,2026-06-05T08:18:54.899136,15.52014879,.0002078,96.9013,187.6532,80.7564,279.3925,0,U,41774,999,54427,.33339E-3,.19999E-3,0
ALSAT-1B,2016-059C,2026-06-05T16:28:23.003904,14.72266053,.0007734,97.7751,165.9465,264.0835,95.9491,0,U,41785,999,51888,.70063E-4,.395E-5,0
PATHFINDER 1,2016-059E,2026-06-05T06:34:08.399712,14.67649034,.0027074,97.8166,156.0878,243.0101,116.8339,0,U,41787,999,51796,.12044E-3,.641E-5,0
SCATSAT 1,2016-059H,2026-06-05T02:34:36.184800,14.79499810,.0053316,98.1196,219.7487,287.3684,72.1701,0,U,41790,999,9980,.16352E-3,.1194E-4,0
GOKTURK 1A,2016-073A,2026-06-05T16:27:01.321344,14.62766350,.0001462,98.1262,51.5395,76.5808,283.5556,0,U,41875,999,50714,.10408E-3,.484E-5,0
RESOURCESAT-2A,2016-074A,2026-06-05T16:03:11.117952,14.21614480,.000329,98.7525,230.2669,104.5328,255.6215,0,U,41877,999,49266,.2784E-3,.566E-5,0
CARTOSAT-2D,2017-008A,2026-06-05T15:10:45.234336,15.19236200,.0003728,97.4122,216.1531,285.1069,74.9753,0,U,41948,999,51582,-.99469E-4,-.216E-4,0
SENTINEL-2B,2017-013A,2026-06-05T16:03:22.706784,14.30814470,.0001222,98.5691,231.6053,82.6601,277.4720,0,U,42063,999,48299,.12941E-3,.296E-5,0
CARTOSAT-2E,2017-036C,2026-06-05T17:10:54.561792,15.19226924,.0003381,97.4275,216.7066,6.7521,353.3759,0,U,42767,999,49640,.16852E-3,.3482E-4,0
FORMOSAT-5,2017-049A,2026-06-05T16:10:27.851808,14.50894483,.0012602,98.2254,232.2392,116.1678,244.0815,0,U,42920,999,46500,.62094E-4,.202E-5,0
SENTINEL-5P,2017-064A,2026-06-05T13:43:13.450080,14.19516921,.0000994,98.7922,98.7858,81.0141,279.1148,0,U,42969,999,44791,.53009E-4,.67E-6,0
SKYSAT-C11,2017-068A,2026-06-05T08:45:22.430016,15.57259063,.0001175,97.4346,304.6876,87.6426,272.4964,0,U,42987,999,48140,.34801E-3,.25292E-3,0
SKYSAT-C10,2017-068B,2026-06-05T14:52:56.144928,15.34433007,.0001298,97.4497,293.3574,89.5268,270.6123,0,U,42988,999,48058,.30097E-3,.9959E-4,0
SKYSAT-C9,2017-068C,2026-06-05T08:37:00.338016,15.41256736,.000879,97.4417,293.9165,171.3348,188.8052,0,U,42989,999,48093,.29359E-3,.12142E-3,0
SKYSAT-C8,2017-068D,2026-06-05T08:21:46.111104,15.36733367,.0001594,97.4515,292.8380,99.3532,260.7892,0,U,42990,999,48049,.26974E-3,.9599E-4,0
SKYSAT-C7,2017-068E,2026-06-05T08:12:00.064224,15.36679572,.0006888,97.4525,293.8200,141.3756,218.7982,0,U,42991,999,48055,.28803E-3,.10245E-3,0
SKYSAT-C6,2017-068F,2026-06-05T14:26:24.741600,15.34006093,.0003719,97.4559,294.0953,168.9448,191.1877,0,U,42992,999,48054,.30932E-3,.10101E-3,0
CARTOSAT-2F,2018-004A,2026-06-05T16:22:01.543584,15.19283138,.0000288,97.4790,216.4278,12.6876,347.4365,0,U,43111,999,46558,.19199E-3,.3982E-4,0
GAOFEN-1 02,2018-031A,2026-06-05T17:02:01.447872,14.76465032,.0004474,98.0527,219.2680,58.7394,301.4253,0,U,43259,999,44100,.1121E-3,.729E-5,0
GAOFEN-1 03,2018-031B,2026-06-05T18:08:09.125952,14.76452599,.0003809,98.0526,219.1737,101.9992,258.1645,0,U,43260,999,44100,.12869E-3,.844E-5,0
GAOFEN-1 04,2018-031D,2026-06-05T17:33:13.365216,14.76462488,.00022,98.0528,219.3387,92.5884,267.5577,0,U,43262,999,44099,.13423E-3,.882E-5,0
SENTINEL-3B,2018-039A,2026-06-05T11:28:20.737056,14.26738325,.0000937,98.6250,224.1778,75.1452,284.9833,0,U,43437,999,42245,.68428E-4,.122E-5,0
GAOFEN-5 01,2018-043A,2026-06-05T11:37:26.073984,14.60597098,.0002963,98.4564,127.8254,104.8796,255.2731,0,U,43461,999,42998,.90938E-4,.393E-5,0
GAOFEN-6,2018-048A,2026-06-05T18:06:30.828672,14.76621081,.0011146,97.7759,219.8576,206.1912,153.8736,0,U,43484,999,43170,.17632E-3,.1184E-4,0
GAOFEN-11 01,2018-063A,2026-06-05T17:16:25.275072,15.54944849,.000446,97.1292,223.6335,36.5625,323.5934,0,U,43585,999,43856,.21064E-3,.14006E-3,0
ICESAT-2,2018-070A,2026-06-05T16:42:20.195712,15.28311518,.0004809,92.0072,287.8759,119.5265,240.6465,0,U,43613,999,43070,.39515E-3,.10898E-3,0
HYSIS,2018-096A,2026-06-05T16:59:06.366912,14.78673178,.0001582,97.9840,223.5451,112.9954,247.1424,0,U,43719,999,40572,.21984E-3,.156E-4,0
KAZSTSAT,2018-099AB,2026-06-05T08:32:05.961120,14.99833502,.0007549,97.4265,188.8226,100.5317,259.6758,0,U,43783,999,40953,.11049E-3,.1313E-4,0
